[{"OBJECT_NAME":"SITRO-AIS 8 (ANOKHIN)","OBJECT_ID":"2023-091AD","EPOCH":"2026-03-09T23:44:40.058592","MEAN_MOTION":15.29359179,"ECCENTRICITY":0.0012509,"INCLINATION":97.5169,"RA_OF_ASC_NODE":133.2823,"ARG_OF_PERICENTER":92.0171,"MEAN_ANOMALY":268.2501,"EPHEMERIS_TYPE":0,"CLASSIFICATION_TYPE":"U","NORAD_CAT_ID":57193,"ELEMENT_SET_NO":999,"REV_AT_EPOCH":14927,"BSTAR":0.00064982524,"MEAN_MOTION_DOT":0.00018494,"MEAN_MOTION_DDOT":0},{"OBJECT_NAME":"STARLINK-32943","OBJECT_ID":"2025-032U","EPOCH":"2026-03-09T04:16:08.774112","MEAN_MOTION":15.27596857,"ECCENTRICITY":0.00037679,"INCLINATION":43.0042,"RA_OF_ASC_NODE":338.7751,"ARG_OF_PERICENTER":242.451,"MEAN_ANOMALY":117.5959,"EPHEMERIS_TYPE":0,"CLASSIFICATION_TYPE":"U","NORAD_CAT_ID":63023,"ELEMENT_SET_NO":999,"REV_AT_EPOCH":6054,"BSTAR":0.0008796104,"MEAN_MOTION_DOT":0.00024037,"MEAN_MOTION_DDOT":0}]
